start=new Date('2023-05-01T00:00:00.000Z').valueOf();
sats=[{"TIME_SYSTEM":"UTC","CENTER_NAME":"EARTH","APOAPSIS":"540.546","MEAN_MOTION_DDOT":"0.0000000000000","OBJECT_ID":"2022-045Z","OBJECT_TYPE":"PAYLOAD","GP_ID":"230976778","NORAD_CAT_ID":"52354","TLE_LINE1":"1 52354U 22045Z   23120.46571373  .00008305  00000-0  53920-3 0  9994","LAUNCH_DATE":"2022-04-29","CLASSIFICATION_TYPE":"U","REF_FRAME":"TEME","MEAN_MOTION":"15.08843471","REV_AT_EPOCH":"5814","TLE_LINE2":"2 52354  53.2154 206.8179 0001173 109.8941 250.2177 15.08843471 58141","FILE":"3897442","RA_OF_ASC_NODE":"206.8179","MEAN_ELEMENT_THEORY":"SGP4","DECAY_DATE":null,"MEAN_MOTION_DOT":"0.00008305","SITE":"AFETR","PERIAPSIS":"538.923","MEAN_ANOMALY":"250.2177","PERIOD":"95.437","INCLINATION":"53.2154","RCS_SIZE":"LARGE","OBJECT_NAME":"STARLINK-3876","ARG_OF_PERICENTER":"109.8941","SEMIMAJOR_AXIS":"6917.870","ELEMENT_SET_NO":"999","EPOCH":"2023-04-30T11:10:37.666272","ECCENTRICITY":"0.00011730","BSTAR":"0.00053920000000","EPHEMERIS_TYPE":"0","COUNTRY_CODE":"US"},{"GP_ID":"230952902","OBJECT_TYPE":"PAYLOAD","OBJECT_ID":"2022-045AA","MEAN_MOTION_DDOT":"0.0000000000000","APOAPSIS":"540.683","TLE_LINE1":"1 52355U 22045AA  23120.61291490  .00007346  00000-0  47908-3 0  9994","LAUNCH_DATE":"2022-04-29","CLASSIFICATION_TYPE":"U","NORAD_CAT_ID":"52355","CENTER_NAME":"EARTH","TIME_SYSTEM":"UTC","RA_OF_ASC_NODE":"206.1619","FILE":"3897410","TLE_LINE2":"2 52355  53.2165 206.1619 0001378  88.7656 271.3493 15.08845168 58163","REV_AT_EPOCH":"5816","MEAN_MOTION":"15.08845168","MEAN_MOTION_DOT":"0.00007346","DECAY_DATE":null,"MEAN_ELEMENT_THEORY":"SGP4","REF_FRAME":"TEME","RCS_SIZE":"LARGE","PERIOD":"95.437","INCLINATION":"53.2165","MEAN_ANOMALY":"271.3493","ARG_OF_PERICENTER":"88.7656","OBJECT_NAME":"STARLINK-3877","SITE":"AFETR","PERIAPSIS":"538.776","COUNTRY_CODE":"US","EPHEMERIS_TYPE":"0","ECCENTRICITY":"0.00013780","EPOCH":"2023-04-30T14:42:35.847360","ELEMENT_SET_NO":"999","SEMIMAJOR_AXIS":"6917.865","BSTAR":"0.00047908000000"},{"ECCENTRICITY":"0.00012090","EPOCH":"2023-04-30T14:26:41.989632","ELEMENT_SET_NO":"999","SEMIMAJOR_AXIS":"6917.859","BSTAR":"0.00016436000000","COUNTRY_CODE":"US","EPHEMERIS_TYPE":"0","SITE":"AFETR","PERIAPSIS":"538.888","RCS_SIZE":"LARGE","INCLINATION":"53.2164","PERIOD":"95.437","MEAN_ANOMALY":"282.9384","ARG_OF_PERICENTER":"77.1743","OBJECT_NAME":"STARLINK-3801","REF_FRAME":"TEME","RA_OF_ASC_NODE":"206.2379","FILE":"3897403","TLE_LINE2":"2 52356  53.2164 206.2379 0001209  77.1743 282.9384 15.08846951 58167","REV_AT_EPOCH":"5816","MEAN_MOTION":"15.08846951","MEAN_MOTION_DOT":"0.00002329","DECAY_DATE":null,"MEAN_ELEMENT_THEORY":"SGP4","TIME_SYSTEM":"UTC","CENTER_NAME":"EARTH","GP_ID":"230952804","OBJECT_TYPE":"PAYLOAD","OBJECT_ID":"2022-045AB","APOAPSIS":"540.561","MEAN_MOTION_DDOT":"0.0000000000000","TLE_LINE1":"1 52356U 22045AB  23120.60187488  .00002329  00000-0  16436-3 0  9993","LAUNCH_DATE":"2022-04-29","CLASSIFICATION_TYPE":"U","NORAD_CAT_ID":"52356"},{"RCS_SIZE":"LARGE","MEAN_ANOMALY":"260.4837","PERIOD":"95.437","INCLINATION":"53.2153","OBJECT_NAME":"STARLINK-3821","ARG_OF_PERICENTER":"99.6279","SITE":"AFETR","PERIAPSIS":"538.979","COUNTRY_CODE":"US","EPHEMERIS_TYPE":"0","EPOCH":"2023-04-30T12:56:36.749472","ELEMENT_SET_NO":"999","ECCENTRICITY":"0.00010990","SEMIMAJOR_AXIS":"6917.874","BSTAR":"0.00007672100000","OBJECT_TYPE":"PAYLOAD","GP_ID":"230977029","MEAN_MOTION_DDOT":"0.0000000000000","APOAPSIS":"540.500","OBJECT_ID":"2022-045AC","LAUNCH_DATE":"2022-04-29","TLE_LINE1":"1 52357U 22045AC  23120.53931423  .00000933  00000-0  76721-4 0  9995","CLASSIFICATION_TYPE":"U","NORAD_CAT_ID":"52357","TIME_SYSTEM":"UTC","CENTER_NAME":"EARTH","FILE":"3897442","RA_OF_ASC_NODE":"206.4898","MEAN_MOTION":"15.08841950","REV_AT_EPOCH":"5815","TLE_LINE2":"2 52357  53.2153 206.4898 0001099  99.6279 260.4837 15.08841950 58151","DECAY_DATE":null,"MEAN_MOTION_DOT":"0.00000933","MEAN_ELEMENT_THEORY":"SGP4","REF_FRAME":"TEME"},{"ARG_OF_PERICENTER":"88.3556","OBJECT_NAME":"STARLINK-3837","RCS_SIZE":"LARGE","PERIOD":"95.437","INCLINATION":"53.2159","MEAN_ANOMALY":"271.7540","PERIAPSIS":"539.098","SITE":"AFETR","COUNTRY_CODE":"US","EPHEMERIS_TYPE":"0","BSTAR":"0.00023951000000","ECCENTRICITY":"0.00009000","EPOCH":"2023-04-30T17:16:16.072608","ELEMENT_SET_NO":"999","SEMIMAJOR_AXIS":"6917.855","TLE_LINE1":"1 52358U 22045AD  23120.71963047  .00003527  00000-0  23951-3 0  9991","CLASSIFICATION_TYPE":"U","LAUNCH_DATE":"2022-04-29","NORAD_CAT_ID":"52358","GP_ID":"230985367","OBJECT_TYPE":"PAYLOAD","OBJECT_ID":"2022-045AD","APOAPSIS":"540.343","MEAN_MOTION_DDOT":"0.0000000000000","CENTER_NAME":"EARTH","TIME_SYSTEM":"UTC","MEAN_MOTION_DOT":"0.00003527","DECAY_DATE":null,"MEAN_ELEMENT_THEORY":"SGP4","RA_OF_ASC_NODE":"205.6788","FILE":"3897665","TLE_LINE2":"2 52358  53.2159 205.6788 0000900  88.3556 271.7540 15.08848147 58184","REV_AT_EPOCH":"5818","MEAN_MOTION":"15.08848147","REF_FRAME":"TEME"},{"SITE":"AFETR","PERIAPSIS":"538.855","RCS_SIZE":"LARGE","PERIOD":"95.437","INCLINATION":"53.2171","MEAN_ANOMALY":"272.2587","ARG_OF_PERICENTER":"87.8549","OBJECT_NAME":"STARLINK-3853","ECCENTRICITY":"0.00012610","ELEMENT_SET_NO":"999","EPOCH":"2023-04-30T14:28:04.648512","SEMIMAJOR_AXIS":"6917.863","BSTAR":"0.00016026000000","COUNTRY_CODE":"US","EPHEMERIS_TYPE":"0","TIME_SYSTEM":"UTC","CENTER_NAME":"EARTH","GP_ID":"230952490","OBJECT_TYPE":"PAYLOAD","OBJECT_ID":"2022-045AE","MEAN_MOTION_DDOT":"0.0000000000000","APOAPSIS":"540.600","TLE_LINE1":"1 52359U 22045AE  23120.60283158  .00002264  00000-0  16026-3 0  9990","CLASSIFICATION_TYPE":"U","LAUNCH_DATE":"2022-04-29","NORAD_CAT_ID":"52359","REF_FRAME":"TEME","RA_OF_ASC_NODE":"206.2198","FILE":"3897403","TLE_LINE2":"2 52359  53.2171 206.2198 0001261  87.8549 272.2587 15.08845770 58162","REV_AT_EPOCH":"5816","MEAN_MOTION":"15.08845770","MEAN_MOTION_DOT":"0.00002264","DECAY_DATE":null,"MEAN_ELEMENT_THEORY":"SGP4"},{"CENTER_NAME":"EARTH","TIME_SYSTEM":"UTC","MEAN_MOTION_DDOT":"0.0000000000000","APOAPSIS":"540.636","OBJECT_ID":"2022-045AF","OBJECT_TYPE":"PAYLOAD","GP_ID":"230978281","NORAD_CAT_ID":"52360","CLASSIFICATION_TYPE":"U","TLE_LINE1":"1 52360U 22045AF  23120.44823361  .00000497  00000-0  49315-4 0  9994","LAUNCH_DATE":"2022-04-29","REF_FRAME":"TEME","MEAN_MOTION":"15.08842580","TLE_LINE2":"2 52360  53.2159 196.8949 0001299 108.2490 251.8643 15.08842580 58265","REV_AT_EPOCH":"5826","FILE":"3897442","RA_OF_ASC_NODE":"196.8949","MEAN_ELEMENT_THEORY":"SGP4","DECAY_DATE":null,"MEAN_MOTION_DOT":"0.00000497","SITE":"AFETR","PERIAPSIS":"538.839","MEAN_ANOMALY":"251.8643","PERIOD":"95.437","INCLINATION":"53.2159","RCS_SIZE":"LARGE","OBJECT_NAME":"STARLINK-3824","ARG_OF_PERICENTER":"108.2490","SEMIMAJOR_AXIS":"6917.873","ELEMENT_SET_NO":"999","EPOCH":"2023-04-30T10:45:27.383904","ECCENTRICITY":"0.00012990","BSTAR":"0.00004931500000","EPHEMERIS_TYPE":"0","COUNTRY_CODE":"US"},{"FILE":"3897704","RA_OF_ASC_NODE":"205.6456","MEAN_MOTION":"15.08850993","TLE_LINE2":"2 52361  53.2158 205.6456 0000997  98.3449 261.7656 15.08850993 58186","REV_AT_EPOCH":"5818","DECAY_DATE":null,"MEAN_MOTION_DOT":"0.00002294","MEAN_ELEMENT_THEORY":"SGP4","REF_FRAME":"TEME","OBJECT_TYPE":"PAYLOAD","GP_ID":"230985964","APOAPSIS":"540.401","MEAN_MOTION_DDOT":"0.0000000000000","OBJECT_ID":"2022-045AG","TLE_LINE1":"1 52361U 22045AG  23120.72698699  .00002294  00000-0  16211-3 0  9995","CLASSIFICATION_TYPE":"U","LAUNCH_DATE":"2022-04-29","NORAD_CAT_ID":"52361","TIME_SYSTEM":"UTC","CENTER_NAME":"EARTH","COUNTRY_CODE":"US","EPHEMERIS_TYPE":"0","ELEMENT_SET_NO":"999","EPOCH":"2023-04-30T17:26:51.675936","ECCENTRICITY":"0.00009970","SEMIMAJOR_AXIS":"6917.847","BSTAR":"0.00016211000000","RCS_SIZE":"LARGE","MEAN_ANOMALY":"261.7656","INCLINATION":"53.2158","PERIOD":"95.437","OBJECT_NAME":"STARLINK-3728","ARG_OF_PERICENTER":"98.3449","SITE":"AFETR","PERIAPSIS":"539.022"},{"OBJECT_TYPE":"PAYLOAD","GP_ID":"230952812","APOAPSIS":"540.643","MEAN_MOTION_DDOT":"0.0000000000000","OBJECT_ID":"2022-045AH","TLE_LINE1":"1 52362U 22045AH  23120.57703302 -.00001294  00000-0 -63239-4 0  9991","LAUNCH_DATE":"2022-04-29","CLASSIFICATION_TYPE":"U","NORAD_CAT_ID":"52362","TIME_SYSTEM":"UTC","CENTER_NAME":"EARTH","FILE":"3897403","RA_OF_ASC_NODE":"196.3158","MEAN_MOTION":"15.08836127","REV_AT_EPOCH":"5829","TLE_LINE2":"2 52362  53.2157 196.3158 0001281  90.6446 269.4693 15.08836127 58291","DECAY_DATE":null,"MEAN_MOTION_DOT":"-0.00001294","MEAN_ELEMENT_THEORY":"SGP4","REF_FRAME":"TEME","RCS_SIZE":"LARGE","MEAN_ANOMALY":"269.4693","PERIOD":"95.438","INCLINATION":"53.2157","OBJECT_NAME":"STARLINK-3848","ARG_OF_PERICENTER":"90.6446","SITE":"AFETR","PERIAPSIS":"538.871","COUNTRY_CODE":"US","EPHEMERIS_TYPE":"0","ELEMENT_SET_NO":"999","EPOCH":"2023-04-30T13:50:55.652928","ECCENTRICITY":"0.00012810","SEMIMAJOR_AXIS":"6917.892","BSTAR":"-0.00006323900000"},{"SITE":"AFETR","PERIAPSIS":"539.290","PERIOD":"95.438","INCLINATION":"53.2153","MEAN_ANOMALY":"268.0064","RCS_SIZE":"LARGE","ARG_OF_PERICENTER":"92.1003","OBJECT_NAME":"STARLINK-3830","SEMIMAJOR_AXIS":"6917.878","ECCENTRICITY":"0.00006550","ELEMENT_SET_NO":"999","EPOCH":"2023-04-30T12:35:24.836928","BSTAR":"0.00026298000000","EPHEMERIS_TYPE":"0","COUNTRY_CODE":"US","CENTER_NAME":"EARTH","TIME_SYSTEM":"UTC","OBJECT_ID":"2022-045AJ","MEAN_MOTION_DDOT":"0.0000000000000","APOAPSIS":"540.196","GP_ID":"230978031","OBJECT_TYPE":"PAYLOAD","NORAD_CAT_ID":"52363","TLE_LINE1":"1 52363U 22045AJ  23120.52459302  .00003900  00000-0  26298-3 0  9992","LAUNCH_DATE":"2022-04-29","CLASSIFICATION_TYPE":"U","REF_FRAME":"TEME","REV_AT_EPOCH":"5815","TLE_LINE2":"2 52363  53.2153 206.5561 0000655  92.1003 268.0064 15.08840846 58155","MEAN_MOTION":"15.08840846","RA_OF_ASC_NODE":"206.5561","FILE":"3897442","MEAN_ELEMENT_THEORY":"SGP4","MEAN_MOTION_DOT":"0.00003900","DECAY_DATE":null}];
